NORAD_CAT_ID,OBJECT_NAME,OBJECT_TYPE,EPOCH,MEAN_MOTION,ECCENTRICITY,INCLINATION,RA_OF_ASC_NODE,ARG_OF_PERICENTER,MEAN_ANOMALY,BSTAR,MEAN_MOTION_DOT,MEAN_MOTION_DDOT,TLE_LINE0,TLE_LINE1,TLE_LINE2,SEMIMAJOR_AXIS,PERIOD,APOGEE,PERIGEE,DECAYED
56462.0,STARLINK-6045,PAYLOAD,2023-12-03 14:00:01,14.99284716,0.000293,70.0006,29.7423,279.4993,47.2189,0.0032787,0.00040238,0.0,0 STARLINK-6045,1 56462U 23064Q   23337.58334491  .00040238  00000-0  32787-2 0  9999,2 56462  70.0006  29.7423 0002930 279.4993  47.2189 14.99284716  5953,6947.242,96.046,571.143,567.072,0.0
56462.0,STARLINK-6045,PAYLOAD,2023-12-03 22:00:00,14.99289551,0.0002857,70.0007,28.9005,274.7883,50.5851,0.0025602,0.00031364,0.0,0 STARLINK-6045,1 56462U 23064Q   23337.91667824  .00031364  00000-0  25602-2 0  9993,2 56462  70.0007  28.9005 0002857 274.7883  50.5851 14.99289551 32758,6947.227,96.045,571.077,567.107,0.0
56462.0,STARLINK-6045,PAYLOAD,2023-12-04 16:00:01,14.99314867,0.0002898,70.0005,27.0062,275.2722,137.1719,-0.0035091,-0.00042786,0.0,0 STARLINK-6045,1 56462U 23064Q   23338.66668981 -.00042786  00000-0 -35091-2 0  9996,2 56462  70.0005  27.0062 0002898 275.2722 137.1719 14.99314867  5947,6947.149,96.044,571.027,567.001,0.0
56462.0,STARLINK-6045,PAYLOAD,2023-12-04 22:00:00,14.99267009,0.000285,70.0008,26.3749,268.8209,52.5597,0.0031516,0.00038648,0.0,0 STARLINK-6045,1 56462U 23064Q   23338.91667824  .00038648  00000-0  31516-2 0  9997,2 56462  70.0008  26.3749 0002850 268.8209  52.5597 14.99267009 32893,6947.297,96.047,571.142,567.182,0.0
56462.0,STARLINK-6045,PAYLOAD,2023-12-05 10:58:56,14.99301401,0.0002345,70.0002,25.0104,253.605,106.4852,-0.0001242,-1.613e-05,0.0,0 STARLINK-6045,1 56462U 23064Q   23339.45759564 -.00001613  00000-0 -12420-3 0  9998,2 56462  70.0002  25.0104 0002345 253.6050 106.4852 14.99301401 32981,6947.191,96.045,570.685,567.426,0.0
56462.0,STARLINK-6045,PAYLOAD,2023-12-05 12:35:00,14.99298578,0.0002354,70.0005,24.8415,295.1839,64.9076,1.5257e-05,9.3e-07,0.0,0 STARLINK-6045,1 56462U 23064Q   23339.52431457  .00000093  00000-0  15257-4 0  9995,2 56462  70.0005  24.8415 0002354 295.1839  64.9076 14.99298578 32630,6947.199,96.045,570.7,567.429,0.0
56462.0,STARLINK-6045,PAYLOAD,2023-12-06 11:00:01,14.9929895,0.000219,70.0016,22.4859,235.7711,124.3241,-8.2717e-05,-1.106e-05,0.0,0 STARLINK-6045,1 56462U 23064Q   23340.45834744 -.00001106  00000-0 -82717-4 0  9998,2 56462  70.0016  22.4859 0002190 235.7711 124.3241 14.99298950 33130,6947.198,96.045,570.585,567.542,0.0
56462.0,STARLINK-6045,PAYLOAD,2023-12-06 12:36:06,14.99296179,0.0001213,70.0023,22.3186,275.933,84.1691,-0.00013759,-1.776e-05,0.0,0 STARLINK-6045,1 56462U 23064Q   23340.52507241 -.00001776  00000-0 -13759-3 0  9997,2 56462  70.0023  22.3186 0001213 275.9330  84.1691 14.99296179 32781,6947.207,96.045,569.914,568.229,0.0
56462.0,STARLINK-6045,PAYLOAD,2023-12-07 04:36:48,14.99297497,0.0002634,69.9998,20.6298,263.7994,96.2865,2.8267e-05,2.52e-06,0.0,0 STARLINK-6045,1 56462U 23064Q   23341.19222898  .00000252  00000-0  28267-4 0  9990,2 56462  69.9998  20.6298 0002634 263.7994  96.2865 14.99297497 33246,6947.203,96.045,570.897,567.238,0.0
56462.0,STARLINK-6045,PAYLOAD,2023-12-07 12:37:10,14.99295531,0.0002571,69.9995,19.7873,260.9261,99.1608,2.6966e-05,2.36e-06,0.0,0 STARLINK-6045,1 56462U 23064Q   23341.52581460  .00000236  00000-0  26966-4 0  9996,2 56462  69.9995  19.7873 0002571 260.9261  99.1608 14.99295531 32936,6947.209,96.045,570.86,567.288,0.0
56462.0,STARLINK-6045,PAYLOAD,2023-12-08 11:02:11,14.99292219,0.0002666,69.9996,17.4286,256.7238,103.3624,-4.7927e-05,-6.8e-06,0.0,0 STARLINK-6045,1 56462U 23064Q   23342.45985477 -.00000680  00000-0 -47927-4 0  9990,2 56462  69.9996  17.4286 0002666 256.7238 103.3624 14.99292219 33434,6947.219,96.045,570.936,567.232,0.0
56462.0,STARLINK-6045,PAYLOAD,2023-12-08 12:38:15,14.99292105,0.0002716,69.9993,17.2591,264.5595,95.5254,-4.7751e-05,-6.78e-06,0.0,0 STARLINK-6045,1 56462U 23064Q   23342.52657236 -.00000678  00000-0 -47751-4 0  9999,2 56462  69.9993  17.2591 0002716 264.5595  95.5254 14.99292105 33083,6947.219,96.045,570.971,567.197,0.0
56462.0,STARLINK-6045,PAYLOAD,2023-12-09 11:03:15,14.99301731,0.0003008,69.9985,14.8999,271.0821,88.9994,5.8436e-05,6.21e-06,0.0,0 STARLINK-6045,1 56462U 23064Q   23343.46059997  .00000621  00000-0  58436-4 0  9991,2 56462  69.9985  14.8999 0003008 271.0821  88.9994 14.99301731 33587,6947.19,96.045,571.144,566.965,0.0
56462.0,STARLINK-6045,PAYLOAD,2023-12-09 12:39:20,14.99306771,0.000293,69.9985,14.7315,269.8376,90.2448,-1.3844e-05,-2.63e-06,0.0,0 STARLINK-6045,1 56462U 23064Q   23343.52731535 -.00000263  00000-0 -13844-4 0  9991,2 56462  69.9985  14.7315 0002930 269.8376  90.2448 14.99306771 33232,6947.174,96.044,571.074,567.003,0.0
56462.0,STARLINK-6045,PAYLOAD,2023-12-10 01:27:54,14.99299236,0.0002591,69.999,13.3833,263.3466,96.7399,3.7689e-05,3.67e-06,0.0,0 STARLINK-6045,1 56462U 23064Q   23344.06105299  .00000367  00000-0  37689-4 0  9999,2 56462  69.9990  13.3833 0002591 263.3466  96.7399 14.99299236 33312,6947.197,96.045,570.862,567.262,0.0
56462.0,STARLINK-6045,PAYLOAD,2023-12-11 04:41:08,14.99303796,0.0002841,69.9988,10.5197,266.4357,93.6477,4.4931e-06,-3.9e-07,0.0,0 STARLINK-6045,1 56462U 23064Q   23345.19523564 -.00000039  00000-0  44931-5 0  9999,2 56462  69.9988  10.5197 0002841 266.4357  93.6477 14.99303796 33840,6947.183,96.045,571.022,567.074,0.0
56462.0,STARLINK-6045,PAYLOAD,2023-12-11 11:05:25,14.99304098,0.000282,69.999,9.8459,266.06,94.0237,9.4227e-06,2.1e-07,0.0,0 STARLINK-6045,1 56462U 23064Q   23345.46210184  .00000021  00000-0  94227-5 0  9993,2 56462  69.9990   9.8459 0002820 266.0600  94.0237 14.99304098 33529,6947.182,96.045,571.006,567.088,0.0
56462.0,STARLINK-6045,PAYLOAD,2023-12-12 11:06:30,14.99300593,0.0002756,69.9992,7.3195,261.3098,98.7749,-2.5958e-05,-4.11e-06,0.0,0 STARLINK-6045,1 56462U 23064Q   23346.46285496 -.00000411  00000-0 -25958-4 0  9991,2 56462  69.9992   7.3195 0002756 261.3098  98.7749 14.99300593 34030,6947.193,96.045,570.973,567.143,0.0
56462.0,STARLINK-6045,PAYLOAD,2023-12-13 11:07:36,14.99286746,0.0002726,69.9993,4.7927,261.8553,98.2298,-0.00016127,-2.066e-05,0.0,0 STARLINK-6045,1 56462U 23064Q   23347.46362089 -.00002066  00000-0 -16127-3 0  9991,2 56462  69.9993   4.7927 0002726 261.8553  98.2298 14.99286746 34186,6947.236,96.046,570.995,567.207,0.0
56462.0,STARLINK-6045,PAYLOAD,2023-12-14 03:08:56,14.98856875,0.0002901,70.0016,3.1124,278.4002,81.6829,-0.0045484,-0.00054683,0.0,0 STARLINK-6045,1 56462U 23064Q   23348.13120762 -.00054683  00000-0 -45484-2 0  9995,2 56462  70.0016   3.1124 0002901 278.4002  81.6829 14.98856875 34287,6948.564,96.073,572.445,568.413,0.0
56462.0,STARLINK-6045,PAYLOAD,2023-12-14 11:09:34,14.98754243,0.0002845,69.9987,2.2669,276.0212,84.0623,-0.0053081,-0.00063551,0.0,0 STARLINK-6045,1 56462U 23064Q   23348.46497967 -.00063551  00000-0 -53081-2 0  9991,2 56462  69.9987   2.2669 0002845 276.0212  84.0623 14.98754243 34330,6948.881,96.08,572.723,568.769,0.0
56462.0,STARLINK-6045,PAYLOAD,2023-12-15 04:46:48,14.98672934,0.0002932,69.9988,0.4139,282.7696,77.3136,-0.004889,-0.0005846,0.0,0 STARLINK-6045,1 56462U 23064Q   23349.19917212 -.00058460  00000-0 -48890-2 0  9997,2 56462  69.9988   0.4139 0002932 282.7696  77.3136 14.98672934 34442,6949.133,96.085,573.035,568.96,0.0
56462.0,STARLINK-6045,PAYLOAD,2023-12-15 11:11:16,14.986505,0.0003005,69.9988,359.7407,282.3881,77.6942,-0.0047307,-0.00056553,0.0,0 STARLINK-6045,1 56462U 23064Q   23349.46616021 -.00056553  00000-0 -47307-2 0  9994,2 56462  69.9988 359.7407 0003005 282.3881  77.6942 14.98650500 34122,6949.202,96.086,573.155,568.979,0.0
56462.0,STARLINK-6045,PAYLOAD,2023-12-16 03:12:32,14.98435379,0.0002908,69.9988,358.0571,299.7114,60.3755,-0.0017328,-0.00020764,0.0,0 STARLINK-6045,1 56462U 23064Q   23350.13370396 -.00020764  00000-0 -17328-2 0  9997,2 56462  69.9988 358.0571 0002908 299.7114  60.3755 14.98435379 34584,6949.867,96.1,573.753,569.711,0.0
56462.0,STARLINK-6045,PAYLOAD,2023-12-16 14:00:01,14.9834337,0.000308,70.0005,356.923,293.9064,330.8128,-0.0030086,-0.00035821,0.0,0 STARLINK-6045,1 56462U 23064Q   23350.58334491 -.00035821  00000-0 -30086-2 0  9998,2 56462  70.0005 356.9230 0003080 293.9064 330.8128 14.98343370 34643,6950.152,96.106,574.157,569.876,0.0
56462.0,STARLINK-6045,PAYLOAD,2023-12-16 22:00:00,14.98292665,0.0002944,70.0007,356.0826,287.2632,334.9415,0.0057607,0.00069259,0.0,0 STARLINK-6045,1 56462U 23064Q   23350.91667824  .00069259  00000-0  57607-2 0  9992,2 56462  70.0007 356.0826 0002944 287.2632 334.9415 14.98292665  5879,6950.308,96.109,574.22,570.127,0.0
56462.0,STARLINK-6045,PAYLOAD,2023-12-17 06:00:00,14.98331231,0.0003057,70.001,355.242,290.5664,329.1028,-0.00083565,-0.0001005,0.0,0 STARLINK-6045,1 56462U 23064Q   23351.25001157 -.00010050  00000-0 -83565-3 0  9991,2 56462  70.0010 355.2420 0003057 290.5664 329.1028 14.98331231 34749,6950.189,96.107,574.179,569.929,0.0
56462.0,STARLINK-6045,PAYLOAD,2023-12-17 14:00:01,14.9835111,0.0003063,70.0008,354.4014,292.6021,324.6072,-0.0026608,-0.00031715,0.0,0 STARLINK-6045,1 56462U 23064Q   23351.58335648 -.00031715  00000-0 -26608-2 0  9997,2 56462  70.0008 354.4014 0003063 292.6021 324.6072 14.98351110  5838,6950.128,96.106,574.121,569.864,0.0
56462.0,STARLINK-6045,PAYLOAD,2023-12-17 22:00:00,14.98315021,0.0002945,70.001,353.561,286.1947,328.4579,0.005723,0.00068841,0.0,0 STARLINK-6045,1 56462U 23064Q   23351.91667824  .00068841  00000-0  57230-2 0  9991,2 56462  70.0010 353.5610 0002945 286.1947 328.4579 14.98315021 34844,6950.239,96.108,574.151,570.057,0.0
56462.0,STARLINK-6045,PAYLOAD,2023-12-18 09:41:05,14.98341234,0.0002847,69.9994,352.3355,285.9964,74.0882,0.00012334,1.379e-05,0.0,0 STARLINK-6045,1 56462U 23064Q   23352.40353834  .00001379  00000-0  12334-3 0  9999,2 56462  69.9994 352.3355 0002847 285.9964  74.0882 14.98341234 34927,6950.158,96.106,574.002,570.044,0.0
